IDEFIX & ARIANE 42P R/B 
1 27422U 02021B   26039.40894601  .00000388  00000+0  16414-3 0  9991
2 27422  98.5841 338.3709 0010685 275.0492  84.9471 14.31004875239837
AQUA                    
1 27424U 02022A   26039.60580822  .00001300  00000+0  26959-3 0  9993
2 27424  98.4123   6.4534 0001509  52.9119  57.7423 14.61903750264480
CZ-4B R/B               
1 27432U 02024C   26039.58907697  .00000037  00000+0  41903-4 0  9997
2 27432  98.8903  93.1332 0051152 105.4971  18.3266 14.14542284225122
MIDORI II (ADEOS-II)    
1 27597U 02056A   26039.47147535  .00000430  00000+0  18700-3 0  9994
2 27597  98.7718 357.7575 0002131  83.9655 276.1770 14.29262795206122
H-2A R/B                
1 27601U 02056E   26039.40667298  .00000406  00000+0  15713-3 0  9990
2 27601  98.3149   0.8969 0069035 248.5904 224.4771 14.33739747209915
CZ-4B R/B               
1 28059U 03049C   26039.56958118  .00000595  00000+0  14819-3 0  9997
2 28059  98.6848  33.3396 0047473 321.7475  38.0356 14.54987749182363
CZ-2C R/B               
1 28222U 04012C   26039.08998356  .00051605  00000+0  60638-3 0  9993
2 28222  97.7307 101.6490 0016002  62.4894 297.7986 15.61147170199655
SL-16 R/B               
1 28353U 04021B   26039.11127865  .00000104  00000+0  78784-4 0  9991
2 28353  70.9999 294.5683 0002912  83.8218 276.3236 14.14589821118650
CZ-4B R/B               
1 28415U 04035C   26039.58604718  .00008346  00000+0  29819-3 0  9993
2 28415  97.3547  74.1834 0034118  73.1055 287.3921 15.28522359175469
CZ-2C R/B               
1 28480U 04046B   26039.59651272  .00000173  00000+0  79976-4 0  9995
2 28480  98.1994 316.3873 0138300 240.7185 118.0115 14.26981794104358
ARIANE 5 R/B            
1 28499U 04049H   26039.39420213  .00001261  00000+0  14480-3 0  9992
2 28499  98.2579 206.7651 0085506  86.1277 274.9707 14.85205739141440
CZ-2D R/B               
1 28738U 05024B   26039.56501276  .00036764  00000+0  49767-3 0  9992
2 28738  97.3624  53.7019 0007424 117.0510 243.1504 15.57594009135247
