CCSDS_OMM_VERS = 2.0
CREATION_DATE  = 
ORIGINATOR     = 

OBJECT_NAME    = IDEFIX & ARIANE 42P R/B
OBJECT_ID      = 2002-021B
CENTER_NAME    = EARTH
REF_FRAME      = TEME
TIME_SYSTEM    = UTC
MEAN_ELEMENT_THEORY = SGP/SGP4

EPOCH          = 2026-02-08T09:48:52.935264
MEAN_MOTION    = 14.31004875
ECCENTRICITY   = .00106857
INCLINATION    = 98.5841
RA_OF_ASC_NODE = 338.3709
ARG_OF_PERICENTER = 275.0492
MEAN_ANOMALY   = 84.9471

EPHEMERIS_TYPE = 0
CLASSIFICATION_TYPE = U
NORAD_CAT_ID   = 27422
ELEMENT_SET_NO = 999
REV_AT_EPOCH   = 23983
BSTAR          = .16414077E-3
MEAN_MOTION_DOT = .388E-5
MEAN_MOTION_DDOT = 0

CCSDS_OMM_VERS = 2.0
CREATION_DATE  = 
ORIGINATOR     = 

OBJECT_NAME    = AQUA
OBJECT_ID      = 2002-022A
CENTER_NAME    = EARTH
REF_FRAME      = TEME
TIME_SYSTEM    = UTC
MEAN_ELEMENT_THEORY = SGP/SGP4

EPOCH          = 2026-02-08T14:32:21.830208
MEAN_MOTION    = 14.61903750
ECCENTRICITY   = .00015099
INCLINATION    = 98.4123
RA_OF_ASC_NODE = 6.4534
ARG_OF_PERICENTER = 52.9119
MEAN_ANOMALY   = 57.7423

EPHEMERIS_TYPE = 0
CLASSIFICATION_TYPE = U
NORAD_CAT_ID   = 27424
ELEMENT_SET_NO = 999
REV_AT_EPOCH   = 26448
BSTAR          = .26959168E-3
MEAN_MOTION_DOT = .13E-4
MEAN_MOTION_DDOT = 0

CCSDS_OMM_VERS = 2.0
CREATION_DATE  = 
ORIGINATOR     = 

OBJECT_NAME    = CZ-4B R/B
OBJECT_ID      = 2002-024C
CENTER_NAME    = EARTH
REF_FRAME      = TEME
TIME_SYSTEM    = UTC
MEAN_ELEMENT_THEORY = SGP/SGP4

EPOCH          = 2026-02-08T14:08:16.250208
MEAN_MOTION    = 14.14542284
ECCENTRICITY   = .00511529
INCLINATION    = 98.8903
RA_OF_ASC_NODE = 93.1332
ARG_OF_PERICENTER = 105.4971
MEAN_ANOMALY   = 18.3266

EPHEMERIS_TYPE = 0
CLASSIFICATION_TYPE = U
NORAD_CAT_ID   = 27432
ELEMENT_SET_NO = 999
REV_AT_EPOCH   = 22512
BSTAR          = .41903249E-4
MEAN_MOTION_DOT = .37E-6
MEAN_MOTION_DDOT = 0

CCSDS_OMM_VERS = 2.0
CREATION_DATE  = 
ORIGINATOR     = 

OBJECT_NAME    = MIDORI II (ADEOS-II)
OBJECT_ID      = 2002-056A
CENTER_NAME    = EARTH
REF_FRAME      = TEME
TIME_SYSTEM    = UTC
MEAN_ELEMENT_THEORY = SGP/SGP4

EPOCH          = 2026-02-08T11:18:55.470240
MEAN_MOTION    = 14.29262795
ECCENTRICITY   = .00021314
INCLINATION    = 98.7718
RA_OF_ASC_NODE = 357.7575
ARG_OF_PERICENTER = 83.9655
MEAN_ANOMALY   = 276.1770

EPHEMERIS_TYPE = 0
CLASSIFICATION_TYPE = U
NORAD_CAT_ID   = 27597
ELEMENT_SET_NO = 999
REV_AT_EPOCH   = 20612
BSTAR          = .18699599E-3
MEAN_MOTION_DOT = .43E-5
MEAN_MOTION_DDOT = 0

CCSDS_OMM_VERS = 2.0
CREATION_DATE  = 
ORIGINATOR     = 

OBJECT_NAME    = H-2A R/B
OBJECT_ID      = 2002-056E
CENTER_NAME    = EARTH
REF_FRAME      = TEME
TIME_SYSTEM    = UTC
MEAN_ELEMENT_THEORY = SGP/SGP4

EPOCH          = 2026-02-08T09:45:36.545472
MEAN_MOTION    = 14.33739747
ECCENTRICITY   = .00690352
INCLINATION    = 98.3149
RA_OF_ASC_NODE = 0.8969
ARG_OF_PERICENTER = 248.5904
MEAN_ANOMALY   = 224.4771

EPHEMERIS_TYPE = 0
CLASSIFICATION_TYPE = U
NORAD_CAT_ID   = 27601
ELEMENT_SET_NO = 999
REV_AT_EPOCH   = 20991
BSTAR          = .15713049E-3
MEAN_MOTION_DOT = .406E-5
MEAN_MOTION_DDOT = 0

CCSDS_OMM_VERS = 2.0
CREATION_DATE  = 
ORIGINATOR     = 

OBJECT_NAME    = CZ-4B R/B
OBJECT_ID      = 2003-049C
CENTER_NAME    = EARTH
REF_FRAME      = TEME
TIME_SYSTEM    = UTC
MEAN_ELEMENT_THEORY = SGP/SGP4

EPOCH          = 2026-02-08T13:40:11.813952
MEAN_MOTION    = 14.54987749
ECCENTRICITY   = .00474736
INCLINATION    = 98.6848
RA_OF_ASC_NODE = 33.3396
ARG_OF_PERICENTER = 321.7475
MEAN_ANOMALY   = 38.0356

EPHEMERIS_TYPE = 0
CLASSIFICATION_TYPE = U
NORAD_CAT_ID   = 28059
ELEMENT_SET_NO = 999
REV_AT_EPOCH   = 18236
BSTAR          = .14818915E-3
MEAN_MOTION_DOT = .595E-5
MEAN_MOTION_DDOT = 0

CCSDS_OMM_VERS = 2.0
CREATION_DATE  = 
ORIGINATOR     = 

OBJECT_NAME    = CZ-2C R/B
OBJECT_ID      = 2004-012C
CENTER_NAME    = EARTH
REF_FRAME      = TEME
TIME_SYSTEM    = UTC
MEAN_ELEMENT_THEORY = SGP/SGP4

EPOCH          = 2026-02-08T02:09:34.579584
MEAN_MOTION    = 15.61147170
ECCENTRICITY   = .00160023
INCLINATION    = 97.7307
RA_OF_ASC_NODE = 101.6490
ARG_OF_PERICENTER = 62.4894
MEAN_ANOMALY   = 297.7986

EPHEMERIS_TYPE = 0
CLASSIFICATION_TYPE = U
NORAD_CAT_ID   = 28222
ELEMENT_SET_NO = 999
REV_AT_EPOCH   = 19965
BSTAR          = .60637828E-3
MEAN_MOTION_DOT = .51605E-3
MEAN_MOTION_DDOT = 0

CCSDS_OMM_VERS = 2.0
CREATION_DATE  = 
ORIGINATOR     = 

OBJECT_NAME    = SL-16 R/B
OBJECT_ID      = 2004-021B
CENTER_NAME    = EARTH
REF_FRAME      = TEME
TIME_SYSTEM    = UTC
MEAN_ELEMENT_THEORY = SGP/SGP4

EPOCH          = 2026-02-08T02:40:14.475360
MEAN_MOTION    = 14.14589821
ECCENTRICITY   = .00029128
INCLINATION    = 70.9999
RA_OF_ASC_NODE = 294.5683
ARG_OF_PERICENTER = 83.8218
MEAN_ANOMALY   = 276.3236

EPHEMERIS_TYPE = 0
CLASSIFICATION_TYPE = U
NORAD_CAT_ID   = 28353
ELEMENT_SET_NO = 999
REV_AT_EPOCH   = 11865
BSTAR          = .78784447E-4
MEAN_MOTION_DOT = .104E-5
MEAN_MOTION_DDOT = 0

CCSDS_OMM_VERS = 2.0
CREATION_DATE  = 
ORIGINATOR     = 

OBJECT_NAME    = CZ-4B R/B
OBJECT_ID      = 2004-035C
CENTER_NAME    = EARTH
REF_FRAME      = TEME
TIME_SYSTEM    = UTC
MEAN_ELEMENT_THEORY = SGP/SGP4

EPOCH          = 2026-02-08T14:03:54.476352
MEAN_MOTION    = 15.28522359
ECCENTRICITY   = .00341182
INCLINATION    = 97.3547
RA_OF_ASC_NODE = 74.1834
ARG_OF_PERICENTER = 73.1055
MEAN_ANOMALY   = 287.3921

EPHEMERIS_TYPE = 0
CLASSIFICATION_TYPE = U
NORAD_CAT_ID   = 28415
ELEMENT_SET_NO = 999
REV_AT_EPOCH   = 17546
BSTAR          = .29819351E-3
MEAN_MOTION_DOT = .8346E-4
MEAN_MOTION_DDOT = 0

CCSDS_OMM_VERS = 2.0
CREATION_DATE  = 
ORIGINATOR     = 

OBJECT_NAME    = CZ-2C R/B
OBJECT_ID      = 2004-046B
CENTER_NAME    = EARTH
REF_FRAME      = TEME
TIME_SYSTEM    = UTC
MEAN_ELEMENT_THEORY = SGP/SGP4

EPOCH          = 2026-02-08T14:18:58.699008
MEAN_MOTION    = 14.26981794
ECCENTRICITY   = .01383002
INCLINATION    = 98.1994
RA_OF_ASC_NODE = 316.3873
ARG_OF_PERICENTER = 240.7185
MEAN_ANOMALY   = 118.0115

EPHEMERIS_TYPE = 0
CLASSIFICATION_TYPE = U
NORAD_CAT_ID   = 28480
ELEMENT_SET_NO = 999
REV_AT_EPOCH   = 10435
BSTAR          = .79976441E-4
MEAN_MOTION_DOT = .173E-5
MEAN_MOTION_DDOT = 0

CCSDS_OMM_VERS = 2.0
CREATION_DATE  = 
ORIGINATOR     = 

OBJECT_NAME    = ARIANE 5 R/B
OBJECT_ID      = 2004-049H
CENTER_NAME    = EARTH
REF_FRAME      = TEME
TIME_SYSTEM    = UTC
MEAN_ELEMENT_THEORY = SGP/SGP4

EPOCH          = 2026-02-08T09:27:39.064032
MEAN_MOTION    = 14.85205739
ECCENTRICITY   = .00855069
INCLINATION    = 98.2579
RA_OF_ASC_NODE = 206.7651
ARG_OF_PERICENTER = 86.1277
MEAN_ANOMALY   = 274.9707

EPHEMERIS_TYPE = 0
CLASSIFICATION_TYPE = U
NORAD_CAT_ID   = 28499
ELEMENT_SET_NO = 999
REV_AT_EPOCH   = 14144
BSTAR          = .14479524E-3
MEAN_MOTION_DOT = .1261E-4
MEAN_MOTION_DDOT = 0

CCSDS_OMM_VERS = 2.0
CREATION_DATE  = 
ORIGINATOR     = 

OBJECT_NAME    = CZ-2D R/B
OBJECT_ID      = 2005-024B
CENTER_NAME    = EARTH
REF_FRAME      = TEME
TIME_SYSTEM    = UTC
MEAN_ELEMENT_THEORY = SGP/SGP4

EPOCH          = 2026-02-08T13:33:37.102464
MEAN_MOTION    = 15.57594009
ECCENTRICITY   = .0007424
INCLINATION    = 97.3624
RA_OF_ASC_NODE = 53.7019
ARG_OF_PERICENTER = 117.0510
MEAN_ANOMALY   = 243.1504

EPHEMERIS_TYPE = 0
CLASSIFICATION_TYPE = U
NORAD_CAT_ID   = 28738
ELEMENT_SET_NO = 999
REV_AT_EPOCH   = 13524
BSTAR          = .49767233E-3
MEAN_MOTION_DOT = .36764E-3
MEAN_MOTION_DDOT = 0

